[
    {
        "id": 1,
        "name": "Griffith",
        "postcode": "2603",
        "state_id": 1
    },
    {
        "id": 2,
        "name": "Narrabundah",
        "postcode": "2604",
        "state_id": 1
    },
    {
        "id": 3,
        "name": "Ormond",
        "postcode": "3204",
        "state_id": 3
    },
    {
        "id": 4,
        "name": "Keysborough",
        "postcode": "3175",
        "state_id": 3
    },
    {
        "id": 5,
        "name": "Malvern East",
        "postcode": "3145",
        "state_id": 3
    },
    {
        "id": 6,
        "name": "Prahran",
        "postcode": "3181",
        "state_id": 3
    },
    {
        "id": 7,
        "name": "Brunswick East",
        "postcode": "3057",
        "state_id": 3
    },
    {
        "id": 8,
        "name": "Bell Park",
        "postcode": "3215",
        "state_id": 3
    },
    {
        "id": 9,
        "name": "Carnegie",
        "postcode": "3163",
        "state_id": 3
    },
    {
        "id": 10,
        "name": "Balaclava",
        "postcode": "3183",
        "state_id": 3
    },
    {
        "id": 11,
        "name": "St. Kilda East",
        "postcode": "3183",
        "state_id": 3
    },
    {
        "id": 12,
        "name": "Carrum",
        "postcode": "3199",
        "state_id": 3
    },
    {
        "id": 13,
        "name": "Beckenham",
        "postcode": "6107",
        "state_id": 13
    },
    {
        "id": 14,
        "name": "Aubin Grove",
        "postcode": "6164",
        "state_id": 13
    },
    {
        "id": 15,
        "name": "Bayswater",
        "postcode": "6053",
        "state_id": 13
    },
    {
        "id": 16,
        "name": "Athelstone",
        "postcode": "5976",
        "state_id": 16
    },
    {
        "id": 17,
        "name": "Holden Hill",
        "postcode": "5088",
        "state_id": 16
    },
    {
        "id": 18,
        "name": "St Agnes",
        "postcode": "5097",
        "state_id": 16
    },
    {
        "id": 19,
        "name": "Queenstown",
        "postcode": "5014",
        "state_id": 16
    },
    {
        "id": 21,
        "name": "Wayville",
        "postcode": "5034",
        "state_id": 16
    },
    {
        "id": 22,
        "name": "Woolloongabba",
        "postcode": "4102",
        "state_id": 22
    },
    {
        "id": 23,
        "name": "Rochedale South",
        "postcode": "4123",
        "state_id": 22
    },
    {
        "id": 24,
        "name": "Southport",
        "postcode": "4215",
        "state_id": 22
    },
    {
        "id": 25,
        "name": "Blacktown",
        "postcode": "2148",
        "state_id": 25
    },
    {
        "id": 26,
        "name": "Homebush South",
        "postcode": "2140",
        "state_id": 25
    },
    {
        "id": 27,
        "name": "Lindfield",
        "postcode": "2070",
        "state_id": 25
    },
    {
        "id": 28,
        "name": "Strathfield",
        "postcode": "2135",
        "state_id": 25
    },
    {
        "id": 29,
        "name": "Sydney",
        "postcode": "2000",
        "state_id": 25
    },
    {
        "id": 30,
        "name": "Berala",
        "postcode": "2141",
        "state_id": 25
    },
    {
        "id": 31,
        "name": "Burwood",
        "postcode": "2134",
        "state_id": 25
    },
    {
        "id": 32,
        "name": "Lidcombe",
        "postcode": "2141",
        "state_id": 25
    },
    {
        "id": 33,
        "name": "Kings Langley",
        "postcode": "2147",
        "state_id": 25
    },
    {
        "id": 34,
        "name": "Engadine",
        "postcode": "2233",
        "state_id": 25
    },
    {
        "id": 35,
        "name": "Mt Colah",
        "postcode": "2079",
        "state_id": 25
    },
    {
        "id": 36,
        "name": "Quakers Hill",
        "postcode": "2763",
        "state_id": 25
    },
    {
        "id": 37,
        "name": "Bellevue Hill",
        "postcode": "2023",
        "state_id": 25
    },
    {
        "id": 38,
        "name": "Lakemba",
        "postcode": "2195",
        "state_id": 25
    },
    {
        "id": 40,
        "name": "Balgowlah North",
        "postcode": "2093",
        "state_id": 25
    },
    {
        "id": 41,
        "name": "Penrith",
        "postcode": "2750",
        "state_id": 25
    },
    {
        "id": 42,
        "name": "Kingston",
        "postcode": "7050",
        "state_id": 42
    }
]